[
    {
        "Altitude(m)": 607911.0209801968,
        "Argument of Periapsis(deg)": 0.0,
        "Eccentricity": 0.0,
        "Inclination(deg)": 60.0,
        "Latitude(deg)": -14.293011561214515,
        "Longitude(deg)": -41.5573300646829,
        "Mean Anomaly(deg)": -163.6364,
        "RAAN(deg)": 229.99999999999997,
        "Satellite Name": "Test1 1024",
        "Satellite Number": 1024,
        "Semi-Major Axis(m)": 6980739.136638005,
        "Time(s)": 0
    },
    {
        "Altitude(m)": 608060.2548983359,
        "Argument of Periapsis(deg)": 0.00010418945913296404,
        "Eccentricity": 0.0,
        "Inclination(deg)": 60.0,
        "Latitude(deg)": -14.826672510242707,
        "Longitude(deg)": -41.268719661353465,
        "Mean Anomaly(deg)": -163.01629385453822,
        "RAAN(deg)": 229.99957995086024,
        "Satellite Name": "Test1 1024",
        "Satellite Number": 1024,
        "Semi-Major Axis(m)": 6980739.136638005,
        "Time(s)": 10
    },
    {
        "Altitude(m)": 608211.9190118222,
        "Argument of Periapsis(deg)": 0.0002083789182659281,
        "Eccentricity": 0.0,
        "Inclination(deg)": 60.0,
        "Latitude(deg)": -15.35981723565082,
        "Longitude(deg)": -40.978500457628755,
        "Mean Anomaly(deg)": -162.39618770907637,
        "RAAN(deg)": 229.99915990172047,
        "Satellite Name": "Test1 1024",
        "Satellite Number": 1024,
        "Semi-Major Axis(m)": 6980739.136638005,
        "Time(s)": 20
    },
    {
        "Altitude(m)": 608365.9652390927,
        "Argument of Periapsis(deg)": 0.00031256837739889213,
        "Eccentricity": 0.0,
        "Inclination(deg)": 60.0,
        "Latitude(deg)": -15.892424528176097,
        "Longitude(deg)": -40.68660498586677,
        "Mean Anomaly(deg)": -161.77608156361455,
        "RAAN(deg)": 229.99873985258077,
        "Satellite Name": "Test1 1024",
        "Satellite Number": 1024,
        "Semi-Major Axis(m)": 6980739.136638005,
        "Time(s)": 30
    },
    {
        "Altitude(m)": 608522.3443010516,
        "Argument of Periapsis(deg)": 0.0004167578365318562,
        "Eccentricity": 0.0,
        "Inclination(deg)": 60.0,
        "Latitude(deg)": -16.424472846292595,
        "Longitude(deg)": -40.392964259411194,
        "Mean Anomaly(deg)": -161.1559754181527,
        "RAAN(deg)": 229.998319803441,
        "Satellite Name": "Test1 1024",
        "Satellite Number": 1024,
        "Semi-Major Axis(m)": 6980739.136638005,
        "Time(s)": 40
    },
    {
        "Altitude(m)": 608681.0057423783,
        "Argument of Periapsis(deg)": 0.0005209472956648203,
        "Eccentricity": 0.0,
        "Inclination(deg)": 60.0,
        "Latitude(deg)": -16.955940300191628,
        "Longitude(deg)": -40.09750873726259,
        "Mean Anomaly(deg)": -160.53586927269086,
        "RAAN(deg)": 229.99789975430127,
        "Satellite Name": "Test1 1024",
        "Satellite Number": 1024,
        "Semi-Major Axis(m)": 6980739.136638005,
        "Time(s)": 50
    },
    {
        "Altitude(m)": 608841.8979534002,
        "Argument of Periapsis(deg)": 0.0006251367547977843,
        "Eccentricity": 0.0,
        "Inclination(deg)": 60.0,
        "Latitude(deg)": -17.486804635279963,
        "Longitude(deg)": -39.80016777503831,
        "Mean Anomaly(deg)": -159.915763127229,
        "RAAN(deg)": 229.9974797051615,
        "Satellite Name": "Test1 1024",
        "Satellite Number": 1024,
        "Semi-Major Axis(m)": 6980739.136638005,
        "Time(s)": 60
    },
    {
        "Altitude(m)": 609004.9681924983,
        "Argument of Periapsis(deg)": 0.0007293262139307483,
        "Eccentricity": 0.0,
        "Inclination(deg)": 60.0,
        "Latitude(deg)": -18.01704321517442,
        "Longitude(deg)": -39.50086907506931,
        "Mean Anomaly(deg)": -159.2956569817672,
        "RAAN(deg)": 229.9970596560218,
        "Satellite Name": "Test1 1024",
        "Satellite Number": 1024,
        "Semi-Major Axis(m)": 6980739.136638005,
        "Time(s)": 70
    },
    {
        "Altitude(m)": 609170.1626090797,
        "Argument of Periapsis(deg)": 0.0008335156730637124,
        "Eccentricity": 0.0,
        "Inclination(deg)": 60.0,
        "Latitude(deg)": -18.54663300417109,
        "Longitude(deg)": -39.19953964848499,
        "Mean Anomaly(deg)": -158.67555083630535,
        "RAAN(deg)": 229.99663960688204,
        "Satellite Name": "Test1 1024",
        "Satellite Number": 1024,
        "Semi-Major Axis(m)": 6980739.136638005,
        "Time(s)": 80
    },
    {
        "Altitude(m)": 609337.4262670672,
        "Argument of Periapsis(deg)": 0.0009377051321966765,
        "Eccentricity": 0.0,
        "Inclination(deg)": 60.0,
        "Latitude(deg)": -19.075550549160315,
        "Longitude(deg)": -38.896105263517114,
        "Mean Anomaly(deg)": -158.05544469084356,
        "RAAN(deg)": 229.9962195577423,
        "Satellite Name": "Test1 1024",
        "Satellite Number": 1024,
        "Semi-Major Axis(m)": 6980739.136638005,
        "Time(s)": 90
    },
    {
        "Altitude(m)": 609506.7031688858,
        "Argument of Periapsis(deg)": 0.0010418945913296407,
        "Eccentricity": 0.0,
        "Inclination(deg)": 60.0,
        "Latitude(deg)": -19.60377196096578,
        "Longitude(deg)": -38.59048989287393,
        "Mean Anomaly(deg)": -157.43533854538174,
        "RAAN(deg)": 229.99579950860254,
        "Satellite Name": "Test1 1024",
        "Satellite Number": 1024,
        "Semi-Major Axis(m)": 6980739.136638005,
        "Time(s)": 100
    },
    {
        "Altitude(m)": 609677.9362799979,
        "Argument of Periapsis(deg)": 0.0011460840504626045,
        "Eccentricity": 0.0,
        "Inclination(deg)": 60.0,
        "Latitude(deg)": -20.131272895081263,
        "Longitude(deg)": -38.2826166730425,
        "Mean Anomaly(deg)": -156.81523239991986,
        "RAAN(deg)": 229.99537945946284,
        "Satellite Name": "Test1 1024",
        "Satellite Number": 1024,
        "Semi-Major Axis(m)": 6980739.136638005,
        "Time(s)": 110
    },
    {
        "Altitude(m)": 609851.0675538674,
        "Argument of Periapsis(deg)": 0.0012502735095955685,
        "Eccentricity": 0.0,
        "Inclination(deg)": 60.0,
        "Latitude(deg)": -20.65802853177674,
        "Longitude(deg)": -37.97240734975212,
        "Mean Anomaly(deg)": -156.1951262544581,
        "RAAN(deg)": 229.99495941032308,
        "Satellite Name": "Test1 1024",
        "Satellite Number": 1024,
        "Semi-Major Axis(m)": 6980739.136638005,
        "Time(s)": 120
    },
    {
        "Altitude(m)": 610026.0379574681,
        "Argument of Periapsis(deg)": 0.0013544629687285324,
        "Eccentricity": 0.0,
        "Inclination(deg)": 60.0,
        "Latitude(deg)": -21.18401355554684,
        "Longitude(deg)": -37.65978172245932,
        "Mean Anomaly(deg)": -155.57502010899623,
        "RAAN(deg)": 229.99453936118334,
        "Satellite Name": "Test1 1024",
        "Satellite Number": 1024,
        "Semi-Major Axis(m)": 6980739.136638005,
        "Time(s)": 130
    },
    {
        "Altitude(m)": 610202.7874972101,
        "Argument of Periapsis(deg)": 0.0014586524278614966,
        "Eccentricity": 0.0,
        "Inclination(deg)": 60.0,
        "Latitude(deg)": -21.709202133875753,
        "Longitude(deg)": -37.34465860071598,
        "Mean Anomaly(deg)": -154.95491396353438,
        "RAAN(deg)": 229.99411931204358,
        "Satellite Name": "Test1 1024",
        "Satellite Number": 1024,
        "Semi-Major Axis(m)": 6980739.136638005,
        "Time(s)": 140
    },
    {
        "Altitude(m)": 610381.2552453179,
        "Argument of Periapsis(deg)": 0.0015628418869944607,
        "Eccentricity": 0.0,
        "Inclination(deg)": 60.0,
        "Latitude(deg)": -22.23356789528553,
        "Longitude(deg)": -37.026955246663164,
        "Mean Anomaly(deg)": -154.3348078180726,
        "RAAN(deg)": 229.99369926290387,
        "Satellite Name": "Test1 1024",
        "Satellite Number": 1024,
        "Semi-Major Axis(m)": 6980739.136638005,
        "Time(s)": 150
    },
    {
        "Altitude(m)": 610561.3793666739,
        "Argument of Periapsis(deg)": 0.0016670313461274247,
        "Eccentricity": 0.0,
        "Inclination(deg)": 60.0,
        "Latitude(deg)": -22.757083906639743,
        "Longitude(deg)": -36.70658681651923,
        "Mean Anomaly(deg)": -153.71470167261074,
        "RAAN(deg)": 229.99327921376414,
        "Satellite Name": "Test1 1024",
        "Satellite Number": 1024,
        "Semi-Major Axis(m)": 6980739.136638005,
        "Time(s)": 160
    },
    {
        "Altitude(m)": 610743.0971460653,
        "Argument of Periapsis(deg)": 0.0017712208052603888,
        "Eccentricity": 0.0,
        "Inclination(deg)": 60.0,
        "Latitude(deg)": -23.279722649673317,
        "Longitude(deg)": -36.3834673139327,
        "Mean Anomaly(deg)": -153.09459552714887,
        "RAAN(deg)": 229.99285916462438,
        "Satellite Name": "Test1 1024",
        "Satellite Number": 1024,
        "Semi-Major Axis(m)": 6980739.136638005,
        "Time(s)": 170
    },
    {
        "Altitude(m)": 610926.3450158369,
        "Argument of Periapsis(deg)": 0.001875410264393353,
        "Eccentricity": 0.0,
        "Inclination(deg)": 60.0,
        "Latitude(deg)": -23.80145599671363,
        "Longitude(deg)": -36.05750902945465,
        "Mean Anomaly(deg)": -152.47448938168705,
        "RAAN(deg)": 229.99243911548461,
        "Satellite Name": "Test1 1024",
        "Satellite Number": 1024,
        "Semi-Major Axis(m)": 6980739.136638005,
        "Time(s)": 180
    },
    {
        "Altitude(m)": 611111.0585839459,
        "Argument of Periapsis(deg)": 0.0019795997235263173,
        "Eccentricity": 0.0,
        "Inclination(deg)": 60.0,
        "Latitude(deg)": -24.322255185561744,
        "Longitude(deg)": -35.72862197900974,
        "Mean Anomaly(deg)": -151.8543832362252,
        "RAAN(deg)": 229.9920190663449,
        "Satellite Name": "Test1 1024",
        "Satellite Number": 1024,
        "Semi-Major Axis(m)": 6980739.136638005,
        "Time(s)": 190
    }
]